[{"OBJECT_NAME":"STARLINK-34780","OBJECT_ID":"2025-165U","EPOCH":"2026-03-09T17:21:31.633920","MEAN_MOTION":15.0564675,"ECCENTRICITY":6.619e-5,"INCLINATION":97.6019,"RA_OF_ASC_NODE":147.234,"ARG_OF_PERICENTER":113.2341,"MEAN_ANOMALY":246.8956,"EPHEMERIS_TYPE":0,"CLASSIFICATION_TYPE":"U","NORAD_CAT_ID":65074,"ELEMENT_SET_NO":999,"REV_AT_EPOCH":3479,"BSTAR":0.00042063792,"MEAN_MOTION_DOT":6.013e-5,"MEAN_MOTION_DDOT":0},{"OBJECT_NAME":"CZ-2D DEB","OBJECT_ID":"2017-060C","EPOCH":"2026-03-09T12:36:22.356864","MEAN_MOTION":15.07716497,"ECCENTRICITY":0.0018685,"INCLINATION":98.2453,"RA_OF_ASC_NODE":267.9231,"ARG_OF_PERICENTER":71.2095,"MEAN_ANOMALY":289.1156,"EPHEMERIS_TYPE":0,"CLASSIFICATION_TYPE":"U","NORAD_CAT_ID":44610,"ELEMENT_SET_NO":999,"REV_AT_EPOCH":45422,"BSTAR":0.00057216024,"MEAN_MOTION_DOT":8.702e-5,"MEAN_MOTION_DDOT":0}]
